GLOBALSTAR M094 [+]     
1 39074U 13005C   23245.67111736 -.00000101  00000+0  13995-4 0  9993
2 39074  51.9984  11.8817 0000534  95.1125 264.9803 12.62267010489866
GLOBALSTAR M096 [+]     
1 39075U 13005D   23245.76334547 -.00000106  00000+0 -10365-4 0  9995
2 39075  52.0076  59.6029 0000465  82.1191 277.9728 12.62268212489122
GLOBALSTAR M078 [+]     
1 39076U 13005E   23245.41995350 -.00000025  00000+0  44152-3 0  9992
2 39076  51.9865 146.0471 0000950 140.7156 219.3780 12.62271431487358
GLOBALSTAR M095 [+]     
1 39077U 13005F   23245.44687089 -.00000063  00000+0  22911-3 0  9994
2 39077  51.9792 143.4900 0000337 146.9002 213.1885 12.62268378487571
GLOBALSTAR M087 [+]     
1 52888U 22064A   23245.75095670 -.00000078  00000+0  96506-4 0  9995
2 52888  51.9752 134.1270 0009641 356.6396   3.4438 13.37551762 58924
